[Satellite]
VERSION=1.1
NAME=ANTELSAT
NICKNAME=ANTELSAT
TLE1=1 40034U 14033AA  15055.44637176  .00001783  00000-0  28187-3 0  9994
TLE2=2 40034  97.9585 309.9187 0061420 119.9356 240.7911 14.72277762 36705
